OBJECT_NAME,OBJECT_ID,EPOCH,MEAN_MOTION,ECCENTRICITY,INCLINATION,RA_OF_ASC_NODE,ARG_OF_PERICENTER,MEAN_ANOMALY,EPHEMERIS_TYPE,CLASSIFICATION_TYPE,NORAD_CAT_ID,ELEMENT_SET_NO,REV_AT_EPOCH,BSTAR,MEAN_MOTION_DOT,MEAN_MOTION_DDOT
HAWK-5A,2022-057AB,2026-07-16T23:05:17.754720,15.52363268,.00031955,97.6630,358.7605,330.0631,30.0438,0,U,52757,999,23096,.172099E-3,.10385E-3,0
HAWK-6B,2023-011A,2026-07-17T08:17:39.243840,15.23165784,.00044089,40.4974,176.1324,251.5496,108.4835,0,U,55324,999,19244,.11253038E-3,.252E-4,0
HAWK-6C,2023-011C,2026-07-17T14:34:24.200256,15.23166774,.00049291,40.4965,171.4414,246.9733,113.0556,0,U,55326,999,19249,.970724E-4,.2146E-4,0
HAWK-6A,2023-011D,2026-07-17T08:16:47.864352,15.23165655,.00045314,40.4975,174.5982,242.4920,117.5429,0,U,55327,999,19245,.10543285E-3,.2348E-4,0
HAWK-7A,2023-054P,2026-07-17T02:42:55.220832,15.27644350,.00012326,97.2658,84.6895,321.9127,38.2026,0,U,56191,999,18159,.11158353E-3,.2943E-4,0
HAWK-7B,2023-054R,2026-07-17T15:17:24.788544,15.27645552,.00010574,97.2682,83.4747,10.8707,349.2555,0,U,56193,999,18167,.10783851E-3,.2842E-4,0
HAWK-7C,2023-054Y,2026-07-17T15:17:13.792416,15.27648156,.00006873,97.2658,84.2340,342.1037,18.0178,0,U,56200,999,18167,.1069865E-3,.2819E-4,0
